STARLINK-31776          
1 59603U 24080C   26067.99670063 -.00002233  00000+0 -71644-4 0  9995
2 59603  43.0020  45.5431 0000633 250.5881 109.4903 15.27580845104384
TEVEL2-3                
1 63218U 25052J   26068.64540225  .00020365  00000+0  69446-3 0  9991
2 63218  97.3994 324.7775 0004761 105.7353 254.4413 15.30377031 54855
